start=new Date('2022-08-03T00:00:00.000Z').valueOf();
sats=[{"OBJECT_NAME":"STARLINK-3151","LAUNCH_DATE":"2021-11-13","EPOCH":"2022-08-02T20:18:57.379680","MEAN_ELEMENT_THEORY":"SGP4","MEAN_ANOMALY":"300.0721","BSTAR":"0.00003718400000","DECAY_DATE":null,"GP_ID":"209457551","PERIAPSIS":"538.600","TIME_SYSTEM":"UTC","OBJECT_TYPE":"PAYLOAD","REF_FRAME":"TEME","APOAPSIS":"540.937","CENTER_NAME":"EARTH","OBJECT_ID":"2021-104A","COUNTRY_CODE":"US","SEMIMAJOR_AXIS":"6917.903","SITE":"AFETR","REV_AT_EPOCH":"4013","RA_OF_ASC_NODE":"11.6886","ELEMENT_SET_NO":"999","PERIOD":"95.438","CLASSIFICATION_TYPE":"U","EPHEMERIS_TYPE":"0","MEAN_MOTION_DDOT":"0.0000000000000","FILE":"3527804","TLE_LINE1":"1 49408U 21104A   22214.84649745  .00000304  00000-0  37184-4 0  9995","MEAN_MOTION":"15.08832458","INCLINATION":"53.2178","ECCENTRICITY":"0.00016890","MEAN_MOTION_DOT":"0.00000304","TLE_LINE2":"2 49408  53.2178  11.6886 0001689  60.0439 300.0721 15.08832458 40134","RCS_SIZE":"LARGE","ARG_OF_PERICENTER":"60.0439","NORAD_CAT_ID":"49408"},{"NORAD_CAT_ID":"49409","RCS_SIZE":"LARGE","ARG_OF_PERICENTER":"25.8446","MEAN_MOTION_DOT":"-0.00003047","TLE_LINE2":"2 49409  53.2178  13.4090 0001683  25.8446 334.2630 15.08811217 40085","ECCENTRICITY":"0.00016830","INCLINATION":"53.2178","MEAN_MOTION":"15.08811217","TLE_LINE1":"1 49409U 21104B   22214.46379852 -.00003047  00000-0 -17358-3 0  9992","EPHEMERIS_TYPE":"0","CLASSIFICATION_TYPE":"U","FILE":"3527697","MEAN_MOTION_DDOT":"0.0000000000000","PERIOD":"95.439","ELEMENT_SET_NO":"999","RA_OF_ASC_NODE":"13.4090","REV_AT_EPOCH":"4008","SEMIMAJOR_AXIS":"6917.968","SITE":"AFETR","COUNTRY_CODE":"US","CENTER_NAME":"EARTH","OBJECT_ID":"2021-104B","APOAPSIS":"540.998","REF_FRAME":"TEME","TIME_SYSTEM":"UTC","PERIAPSIS":"538.669","OBJECT_TYPE":"PAYLOAD","DECAY_DATE":null,"GP_ID":"209430336","MEAN_ANOMALY":"334.2630","BSTAR":"-0.00017358000000","OBJECT_NAME":"STARLINK-3075","EPOCH":"2022-08-02T11:07:52.192128","LAUNCH_DATE":"2021-11-13","MEAN_ELEMENT_THEORY":"SGP4"},{"OBJECT_TYPE":"PAYLOAD","TIME_SYSTEM":"UTC","PERIAPSIS":"538.638","APOAPSIS":"540.872","REF_FRAME":"TEME","COUNTRY_CODE":"US","CENTER_NAME":"EARTH","OBJECT_ID":"2021-104C","SITE":"AFETR","SEMIMAJOR_AXIS":"6917.890","EPOCH":"2022-08-02T20:29:33.120384","LAUNCH_DATE":"2021-11-13","MEAN_ELEMENT_THEORY":"SGP4","OBJECT_NAME":"STARLINK-3147","BSTAR":"-0.00001121400000","MEAN_ANOMALY":"294.2611","DECAY_DATE":null,"GP_ID":"209456049","ECCENTRICITY":"0.00016150","INCLINATION":"53.2172","TLE_LINE2":"2 49410  53.2172  11.6655 0001615  65.8549 294.2611 15.08836805 40131","MEAN_MOTION_DOT":"-0.00000466","ARG_OF_PERICENTER":"65.8549","RCS_SIZE":"LARGE","NORAD_CAT_ID":"49410","REV_AT_EPOCH":"4013","PERIOD":"95.438","ELEMENT_SET_NO":"999","RA_OF_ASC_NODE":"11.6655","FILE":"3527804","MEAN_MOTION_DDOT":"0.0000000000000","EPHEMERIS_TYPE":"0","CLASSIFICATION_TYPE":"U","MEAN_MOTION":"15.08836805","TLE_LINE1":"1 49410U 21104C   22214.85385556 -.00000466  00000-0 -11214-4 0  9993"},{"REF_FRAME":"TEME","APOAPSIS":"540.878","OBJECT_TYPE":"PAYLOAD","PERIAPSIS":"538.645","TIME_SYSTEM":"UTC","SITE":"AFETR","SEMIMAJOR_AXIS":"6917.897","OBJECT_ID":"2021-104D","CENTER_NAME":"EARTH","COUNTRY_CODE":"US","BSTAR":"0.00010275000000","MEAN_ANOMALY":"296.0883","LAUNCH_DATE":"2021-11-13","MEAN_ELEMENT_THEORY":"SGP4","EPOCH":"2022-08-02T09:12:34.368768","OBJECT_NAME":"STARLINK-3162","DECAY_DATE":null,"GP_ID":"209428835","TLE_LINE2":"2 49411  53.2188   3.7659 0001614  64.0275 296.0883 15.08834623 40206","MEAN_MOTION_DOT":"0.00001347","INCLINATION":"53.2188","ECCENTRICITY":"0.00016140","NORAD_CAT_ID":"49411","ARG_OF_PERICENTER":"64.0275","RCS_SIZE":"LARGE","RA_OF_ASC_NODE":"3.7659","ELEMENT_SET_NO":"999","PERIOD":"95.438","REV_AT_EPOCH":"4020","TLE_LINE1":"1 49411U 21104D   22214.38373112  .00001347  00000-0  10275-3 0  9999","MEAN_MOTION":"15.08834623","MEAN_MOTION_DDOT":"0.0000000000000","FILE":"3527697","CLASSIFICATION_TYPE":"U","EPHEMERIS_TYPE":"0"},{"OBJECT_TYPE":"PAYLOAD","PERIAPSIS":"538.525","TIME_SYSTEM":"UTC","REF_FRAME":"TEME","APOAPSIS":"540.945","CENTER_NAME":"EARTH","OBJECT_ID":"2021-104E","COUNTRY_CODE":"US","SITE":"AFETR","SEMIMAJOR_AXIS":"6917.870","LAUNCH_DATE":"2021-11-13","EPOCH":"2022-08-02T09:27:08.477568","MEAN_ELEMENT_THEORY":"SGP4","OBJECT_NAME":"STARLINK-3144","BSTAR":"0.00011396000000","MEAN_ANOMALY":"291.5698","DECAY_DATE":null,"GP_ID":"209430086","INCLINATION":"53.2178","ECCENTRICITY":"0.00017490","TLE_LINE2":"2 49412  53.2178  13.7211 0001749  68.5481 291.5698 15.08843499 40078","MEAN_MOTION_DOT":"0.00001526","ARG_OF_PERICENTER":"68.5481","RCS_SIZE":"LARGE","NORAD_CAT_ID":"49412","REV_AT_EPOCH":"4007","RA_OF_ASC_NODE":"13.7211","ELEMENT_SET_NO":"999","PERIOD":"95.437","MEAN_MOTION_DDOT":"0.0000000000000","FILE":"3527697","CLASSIFICATION_TYPE":"U","EPHEMERIS_TYPE":"0","TLE_LINE1":"1 49412U 21104E   22214.39384812  .00001526  00000-0  11396-3 0  9994","MEAN_MOTION":"15.08843499"},{"TLE_LINE1":"1 49413U 21104F   22214.77749851 -.00000114  00000-0  10919-4 0  9999","MEAN_MOTION":"15.08828411","MEAN_MOTION_DDOT":"0.0000000000000","FILE":"3527804","CLASSIFICATION_TYPE":"U","EPHEMERIS_TYPE":"0","RA_OF_ASC_NODE":"1.9987","ELEMENT_SET_NO":"999","PERIOD":"95.438","REV_AT_EPOCH":"4026","NORAD_CAT_ID":"49413","ARG_OF_PERICENTER":"59.8654","RCS_SIZE":"LARGE","TLE_LINE2":"2 49413  53.2180   1.9987 0001643  59.8654 300.2501 15.08828411 40268","MEAN_MOTION_DOT":"-0.00000114","INCLINATION":"53.2180","ECCENTRICITY":"0.00016430","GP_ID":"209457802","DECAY_DATE":null,"BSTAR":"0.00001091900000","MEAN_ANOMALY":"300.2501","EPOCH":"2022-08-02T18:39:35.871264","LAUNCH_DATE":"2021-11-13","MEAN_ELEMENT_THEORY":"SGP4","OBJECT_NAME":"STARLINK-3157","SITE":"AFETR","SEMIMAJOR_AXIS":"6917.916","CENTER_NAME":"EARTH","OBJECT_ID":"2021-104F","COUNTRY_CODE":"US","REF_FRAME":"TEME","APOAPSIS":"540.917","OBJECT_TYPE":"PAYLOAD","PERIAPSIS":"538.644","TIME_SYSTEM":"UTC"},{"GP_ID":"209456550","DECAY_DATE":null,"OBJECT_NAME":"STARLINK-3146","LAUNCH_DATE":"2021-11-13","EPOCH":"2022-08-02T20:24:14.580000","MEAN_ELEMENT_THEORY":"SGP4","MEAN_ANOMALY":"306.7941","BSTAR":"-0.00000847160000","COUNTRY_CODE":"US","CENTER_NAME":"EARTH","OBJECT_ID":"2021-104G","SEMIMAJOR_AXIS":"6917.873","SITE":"AFETR","TIME_SYSTEM":"UTC","PERIAPSIS":"538.545","OBJECT_TYPE":"PAYLOAD","APOAPSIS":"540.931","REF_FRAME":"TEME","EPHEMERIS_TYPE":"0","CLASSIFICATION_TYPE":"U","FILE":"3527804","MEAN_MOTION_DDOT":"0.0000000000000","MEAN_MOTION":"15.08842389","TLE_LINE1":"1 49414U 21104G   22214.85016875 -.00000423  00000-0 -84716-5 0  9993","REV_AT_EPOCH":"4013","PERIOD":"95.437","RA_OF_ASC_NODE":"11.6672","ELEMENT_SET_NO":"999","RCS_SIZE":"LARGE","ARG_OF_PERICENTER":"53.3209","NORAD_CAT_ID":"49414","ECCENTRICITY":"0.00017240","INCLINATION":"53.2183","MEAN_MOTION_DOT":"-0.00000423","TLE_LINE2":"2 49414  53.2183  11.6672 0001724  53.3209 306.7941 15.08842389 40131"},{"OBJECT_NAME":"STARLINK-3159","LAUNCH_DATE":"2021-11-13","MEAN_ELEMENT_THEORY":"SGP4","EPOCH":"2022-08-02T18:34:17.700672","MEAN_ANOMALY":"304.6385","BSTAR":"0.00002203200000","DECAY_DATE":null,"GP_ID":"209456300","PERIAPSIS":"538.361","TIME_SYSTEM":"UTC","OBJECT_TYPE":"PAYLOAD","REF_FRAME":"TEME","APOAPSIS":"541.153","CENTER_NAME":"EARTH","OBJECT_ID":"2021-104H","COUNTRY_CODE":"US","SEMIMAJOR_AXIS":"6917.892","SITE":"AFETR","REV_AT_EPOCH":"4025","ELEMENT_SET_NO":"999","RA_OF_ASC_NODE":"2.0164","PERIOD":"95.438","CLASSIFICATION_TYPE":"U","EPHEMERIS_TYPE":"0","MEAN_MOTION_DDOT":"0.0000000000000","FILE":"3527804","TLE_LINE1":"1 49415U 21104H   22214.77381598  .00000062  00000-0  22032-4 0  9991","MEAN_MOTION":"15.08836259","INCLINATION":"53.2183","ECCENTRICITY":"0.00020180","MEAN_MOTION_DOT":"0.00000062","TLE_LINE2":"2 49415  53.2183   2.0164 0002018  55.4797 304.6385 15.08836259 40255","RCS_SIZE":"LARGE","ARG_OF_PERICENTER":"55.4797","NORAD_CAT_ID":"49415"},{"MEAN_ANOMALY":"285.6108","BSTAR":"0.00003199800000","OBJECT_NAME":"STARLINK-3133","MEAN_ELEMENT_THEORY":"SGP4","LAUNCH_DATE":"2021-11-13","EPOCH":"2022-08-02T20:13:39.053568","GP_ID":"209457552","DECAY_DATE":null,"APOAPSIS":"541.120","REF_FRAME":"TEME","TIME_SYSTEM":"UTC","PERIAPSIS":"538.349","OBJECT_TYPE":"PAYLOAD","SEMIMAJOR_AXIS":"6917.869","SITE":"AFETR","COUNTRY_CODE":"US","OBJECT_ID":"2021-104J","CENTER_NAME":"EARTH","PERIOD":"95.437","RA_OF_ASC_NODE":"11.6919","ELEMENT_SET_NO":"999","REV_AT_EPOCH":"4013","MEAN_MOTION":"15.08843645","TLE_LINE1":"1 49416U 21104J   22214.84281312  .00000221  00000-0  31998-4 0  9991","EPHEMERIS_TYPE":"0","CLASSIFICATION_TYPE":"U","FILE":"3527804","MEAN_MOTION_DDOT":"0.0000000000000","MEAN_MOTION_DOT":"0.00000221","TLE_LINE2":"2 49416  53.2181  11.6919 0002003  74.5105 285.6108 15.08843645 40132","ECCENTRICITY":"0.00020030","INCLINATION":"53.2181","NORAD_CAT_ID":"49416","RCS_SIZE":"LARGE","ARG_OF_PERICENTER":"74.5105"},{"FILE":"3527760","MEAN_MOTION_DDOT":"0.0000000000000","EPHEMERIS_TYPE":"0","CLASSIFICATION_TYPE":"U","MEAN_MOTION":"15.08842370","TLE_LINE1":"1 49417U 21104K   22214.57140977 -.00000025  00000-0  16503-4 0  9991","REV_AT_EPOCH":"4133","PERIOD":"95.437","ELEMENT_SET_NO":"999","RA_OF_ASC_NODE":"2.9294","ARG_OF_PERICENTER":"56.0393","RCS_SIZE":"LARGE","NORAD_CAT_ID":"49417","ECCENTRICITY":"0.00018580","INCLINATION":"53.2190","TLE_LINE2":"2 49417  53.2190   2.9294 0001858  56.0393 304.0775 15.08842370 41336","MEAN_MOTION_DOT":"-0.00000025","DECAY_DATE":null,"GP_ID":"209433040","EPOCH":"2022-08-02T13:42:49.804128","LAUNCH_DATE":"2021-11-13","MEAN_ELEMENT_THEORY":"SGP4","OBJECT_NAME":"STARLINK-3154","BSTAR":"0.00001650300000","MEAN_ANOMALY":"304.0775","COUNTRY_CODE":"US","CENTER_NAME":"EARTH","OBJECT_ID":"2021-104K","SITE":"AFETR","SEMIMAJOR_AXIS":"6917.873","OBJECT_TYPE":"PAYLOAD","TIME_SYSTEM":"UTC","PERIAPSIS":"538.453","APOAPSIS":"541.023","REF_FRAME":"TEME"}];
